NORAD_CAT_ID,OBJECT_NAME,OBJECT_TYPE,EPOCH,MEAN_MOTION,ECCENTRICITY,INCLINATION,RA_OF_ASC_NODE,ARG_OF_PERICENTER,MEAN_ANOMALY,BSTAR,MEAN_MOTION_DOT,MEAN_MOTION_DDOT,TLE_LINE0,TLE_LINE1,TLE_LINE2,SEMIMAJOR_AXIS,PERIOD,APOGEE,PERIGEE,DECAYED
52986.0,STARLINK-4260,PAYLOAD,2024-01-28 05:07:14,15.08843199,0.0001461,53.2176,317.4148,90.0776,270.0383,0.00019753,2.857e-05,0.0,0 STARLINK-4260,1 52986U 22076A   24028.21335741  .00002857  00000-0  19753-3 0  9999,2 52986  53.2176 317.4148 0001461  90.0776 270.0383 15.08843199 86842,6917.871,95.437,540.746,538.725,0.0
52986.0,STARLINK-4260,PAYLOAD,2024-01-28 22:36:29,15.0881569,0.0001916,53.2186,314.1407,106.9909,253.1294,0.00080406,0.00012523,0.0,0 STARLINK-4260,1 52986U 22076A   24028.94201090  .00012523  00000-0  80406-3 0  9992,2 52986  53.2186 314.1407 0001916 106.9909 253.1294 15.08815690 86483,6917.955,95.439,541.145,538.494,0.0
52986.0,STARLINK-4260,PAYLOAD,2024-01-29 19:16:29,15.08836126,0.0001602,53.2195,310.2737,102.2573,257.8598,0.00015671,2.207e-05,0.0,0 STARLINK-4260,1 52986U 22076A   24029.80311799  .00002207  00000-0  15671-3 0  9996,2 52986  53.2195 310.2737 0001602 102.2573 257.8598 15.08836126 87086,6917.892,95.438,540.865,538.649,0.0
52986.0,STARLINK-4260,PAYLOAD,2024-01-30 01:38:01,15.08842876,0.0001494,53.2195,309.0844,95.062,265.0542,7.723e-05,9.41e-06,0.0,0 STARLINK-4260,1 52986U 22076A   24030.06807642  .00000941  00000-0  77230-4 0  9996,2 52986  53.2195 309.0844 0001494  95.0620 265.0542 15.08842876 86653,6917.872,95.437,540.77,538.703,0.0
52986.0,STARLINK-4260,PAYLOAD,2024-01-30 22:18:02,15.08830215,0.0001628,53.2197,305.2186,105.373,254.7442,0.0001964,2.838e-05,0.0,0 STARLINK-4260,1 52986U 22076A   24030.92920010  .00002838  00000-0  19640-3 0  9993,2 52986  53.2197 305.2186 0001628 105.3730 254.7442 15.08830215 86780,6917.91,95.438,540.902,538.649,0.0
52986.0,STARLINK-4260,PAYLOAD,2024-01-30 23:53:25,15.08845481,0.0001605,53.2189,304.9224,110.0444,250.0721,6.44e-06,-1.86e-06,0.0,0 STARLINK-4260,1 52986U 22076A   24030.99543628 -.00000186  00000-0  64400-5 0  9997,2 52986  53.2189 304.9224 0001605 110.0444 250.0721 15.08845481 87264,6917.864,95.437,540.839,538.618,0.0
52986.0,STARLINK-4260,PAYLOAD,2024-02-01 01:19:36,15.08853986,0.0001347,53.2174,300.1694,95.64,264.4745,-0.00022825,-3.92e-05,0.0,0 STARLINK-4260,1 52986U 22076A   24032.05527840 -.00003920  00000-0 -22825-3 0  9997,2 52986  53.2174 300.1694 0001347  95.6400 264.4745 15.08853986 87422,6917.838,95.437,540.634,538.771,0.0
52986.0,STARLINK-4260,PAYLOAD,2024-02-01 06:05:45,15.088484,0.0001422,53.2175,299.2754,97.8801,262.2352,-7.6561e-05,-1.507e-05,0.0,0 STARLINK-4260,1 52986U 22076A   24032.25399724 -.00001507  00000-0 -76561-4 0  9993,2 52986  53.2175 299.2754 0001422  97.8801 262.2352 15.08848400 86986,6917.855,95.437,540.703,538.736,0.0
52986.0,STARLINK-4260,PAYLOAD,2024-02-02 01:10:24,15.08768003,0.0002051,53.2182,295.7055,75.5771,284.5448,0.0012108,0.00018997,0.0,0 STARLINK-4260,1 52986U 22076A   24033.04890025  .00018997  00000-0  12108-2 0  9995,2 52986  53.2182 295.7055 0002051  75.5771 284.5448 15.08768003 87576,6918.1,95.442,541.384,538.547,0.0
52986.0,STARLINK-4260,PAYLOAD,2024-02-02 21:50:24,15.08833189,0.0001495,53.2181,291.8388,87.1946,272.9217,0.00012098,1.638e-05,0.0,0 STARLINK-4260,1 52986U 22076A   24033.91000316  .00001638  00000-0  12098-3 0  9990,2 52986  53.2181 291.8388 0001495  87.1946 272.9217 15.08833189 87231,6917.901,95.438,540.8,538.732,0.0
52986.0,STARLINK-4260,PAYLOAD,2024-02-03 02:36:33,15.08840888,0.000172,53.2183,290.946,72.8454,287.2727,6.0654e-05,6.77e-06,0.0,0 STARLINK-4260,1 52986U 22076A   24034.10872185  .00000677  00000-0  60654-4 0  9997,2 52986  53.2183 290.9460 0001720  72.8454 287.2727 15.08840888 87734,6917.878,95.437,540.933,538.553,0.0
52986.0,STARLINK-4260,PAYLOAD,2024-02-03 20:05:48,15.08769331,0.0001812,53.2168,287.674,113.8447,246.2735,0.00098117,0.00015332,0.0,0 STARLINK-4260,1 52986U 22076A   24034.83736423  .00015332  00000-0  98117-3 0  9999,2 52986  53.2168 287.6740 0001812 113.8447 246.2735 15.08769331 87840,6918.096,95.442,541.215,538.708,0.0
52986.0,STARLINK-4260,PAYLOAD,2024-02-03 21:41:11,15.0877414,0.000177,53.2171,287.3757,107.0659,253.0527,0.00096876,0.00015136,0.0,0 STARLINK-4260,1 52986U 22076A   24034.90360415  .00015136  00000-0  96876-3 0  9993,2 52986  53.2171 287.3757 0001770 107.0659 253.0527 15.08774140 87380,6918.082,95.442,541.171,538.722,0.0
52986.0,STARLINK-4260,PAYLOAD,2024-02-03 23:16:33,15.08848088,0.00014,53.2171,287.0785,99.5653,260.5498,6.5094e-06,-1.84e-06,0.0,0 STARLINK-4260,1 52986U 22076A   24034.96983644 -.00000184  00000-0  65094-5 0  9992,2 52986  53.2171 287.0785 0001400  99.5653 260.5498 15.08848088 87863,6917.856,95.437,540.689,538.752,0.0
52986.0,STARLINK-4260,PAYLOAD,2024-02-04 19:56:34,15.0884021,0.0001404,53.2166,283.2125,98.0712,262.0439,6.1802e-05,6.96e-06,0.0,0 STARLINK-4260,1 52986U 22076A   24035.83095946  .00000696  00000-0  61802-4 0  9997,2 52986  53.2166 283.2125 0001404  98.0712 262.0439 15.08840210 87992,6917.88,95.438,540.716,538.773,0.0
52986.0,STARLINK-4260,PAYLOAD,2024-02-04 21:31:57,15.08843877,0.0001368,53.2168,282.9158,92.2233,267.8915,2.0809e-05,4.3e-07,0.0,0 STARLINK-4260,1 52986U 22076A   24035.89719868  .00000043  00000-0  20809-4 0  9997,2 52986  53.2168 282.9158 0001368  92.2233 267.8915 15.08843877 87533,6917.869,95.437,540.68,538.787,0.0
52986.0,STARLINK-4260,PAYLOAD,2024-02-04 23:07:21,15.08845155,0.0001376,53.2169,282.6186,91.7221,268.3928,2.8607e-05,1.67e-06,0.0,0 STARLINK-4260,1 52986U 22076A   24035.96343757  .00000167  00000-0  28607-4 0  9996,2 52986  53.2169 282.6186 0001376  91.7221 268.3928 15.08845155 87544,6917.865,95.437,540.682,538.778,0.0
52986.0,STARLINK-4260,PAYLOAD,2024-02-05 21:22:45,15.08832661,0.0001428,53.2169,278.4592,94.8827,265.2328,6.5222e-05,7.5e-06,0.0,0 STARLINK-4260,1 52986U 22076A   24036.89080576  .00000750  00000-0  65222-4 0  9998,2 52986  53.2169 278.4592 0001428  94.8827 265.2328 15.08832661 87685,6917.903,95.438,540.756,538.78,0.0
52986.0,STARLINK-4260,PAYLOAD,2024-02-05 22:58:08,15.08834346,0.0001458,53.2174,278.164,102.2281,257.8874,5.6957e-05,6.19e-06,0.0,0 STARLINK-4260,1 52986U 22076A   24036.95704488  .00000619  00000-0  56957-4 0  9999,2 52986  53.2174 278.1640 0001458 102.2281 257.8874 15.08834346 88162,6917.898,95.438,540.771,538.754,0.0
52986.0,STARLINK-4260,PAYLOAD,2024-02-06 21:13:32,15.08843605,0.000152,53.2171,274.0013,112.2179,247.8974,-1.9822e-05,-6.03e-06,0.0,0 STARLINK-4260,1 52986U 22076A   24037.88440300 -.00000603  00000-0 -19822-4 0  9997,2 52986  53.2171 274.0013 0001520 112.2179 247.8974 15.08843605 87836,6917.869,95.437,540.786,538.683,0.0
52986.0,STARLINK-4260,PAYLOAD,2024-02-07 00:24:18,15.08823428,0.0001681,53.2176,273.4062,110.5037,249.6136,0.00034004,5.125e-05,0.0,0 STARLINK-4260,1 52986U 22076A   24038.01688520  .00005125  00000-0  34004-3 0  9991,2 52986  53.2176 273.4062 0001681 110.5037 249.6136 15.08823428 88326,6917.931,95.439,540.959,538.633,0.0
52986.0,STARLINK-4260,PAYLOAD,2024-02-07 08:21:14,15.08838486,0.0001344,53.2172,271.9158,84.7516,275.363,8.5965e-05,1.08e-05,0.0,0 STARLINK-4260,1 52986U 22076A   24038.34808411  .00001080  00000-0  85965-4 0  9999,2 52986  53.2172 271.9158 0001344  84.7516 275.3630 15.08838486 87909,6917.885,95.438,540.68,538.82,0.0
52986.0,STARLINK-4260,PAYLOAD,2024-02-07 21:04:20,15.08832013,0.0001549,53.2179,269.5437,107.7337,252.3824,9.6765e-06,-1.34e-06,0.0,0 STARLINK-4260,1 52986U 22076A   24038.87801279 -.00000134  00000-0  96765-5 0  9993,2 52986  53.2179 269.5437 0001549 107.7337 252.3824 15.08832013 87981,6917.905,95.438,540.841,538.698,0.0
52986.0,STARLINK-4260,PAYLOAD,2024-02-08 08:12:02,15.08834222,0.0001561,53.2178,267.4608,98.7114,261.4055,3.5091e-05,2.7e-06,0.0,0 STARLINK-4260,1 52986U 22076A   24039.34169315  .00000270  00000-0  35091-4 0  9998,2 52986  53.2178 267.4608 0001561  98.7114 261.4055 15.08834222 88525,6917.898,95.438,540.843,538.683,0.0
52986.0,STARLINK-4260,PAYLOAD,2024-02-08 19:19:43,15.08844639,0.0001481,53.2178,265.379,96.9913,263.1247,3.4121e-05,2.55e-06,0.0,0 STARLINK-4260,1 52986U 22076A   24039.80536798  .00000255  00000-0  34121-4 0  9998,2 52986  53.2178 265.3790 0001481  96.9913 263.1247 15.08844639 88594,6917.866,95.437,540.756,538.707,0.0
52986.0,STARLINK-4260,PAYLOAD,2024-02-08 22:30:29,15.0884506,0.0001318,53.217,264.7819,90.7978,269.3165,4.1474e-05,3.72e-06,0.0,0 STARLINK-4260,1 52986U 22076A   24039.93784686  .00000372  00000-0  41474-4 0  9992,2 52986  53.2170 264.7819 0001318  90.7978 269.3165 15.08845060 88140,6917.865,95.437,540.642,538.818,0.0
52986.0,STARLINK-4260,PAYLOAD,2024-02-09 00:05:53,15.08845505,0.0001326,53.217,264.4832,90.311,269.8034,4.7202e-05,4.63e-06,0.0,0 STARLINK-4260,1 52986U 22076A   24040.00408635  .00000463  00000-0  47202-4 0  9995,2 52986  53.2170 264.4832 0001326  90.3110 269.8034 15.08845505 88150,6917.864,95.437,540.646,538.811,0.0
52986.0,STARLINK-4260,PAYLOAD,2024-02-09 19:10:30,15.08838057,0.0001403,53.2172,260.9145,85.3347,274.7805,0.00013592,1.876e-05,0.0,0 STARLINK-4260,1 52986U 22076A   24040.79896972  .00001876  00000-0  13592-3 0  9999,2 52986  53.2172 260.9145 0001403  85.3347 274.7805 15.08838057 88742,6917.886,95.438,540.722,538.781,0.0
52986.0,STARLINK-4260,PAYLOAD,2024-02-09 23:56:40,15.08845187,0.0001347,53.217,260.0213,85.4608,274.6538,0.00013224,1.818e-05,0.0,0 STARLINK-4260,1 52986U 22076A   24040.99768535  .00001818  00000-0  13224-3 0  9992,2 52986  53.2170 260.0213 0001347  85.4608 274.6538 15.08845187 88772,6917.865,95.437,540.661,538.798,0.0
52986.0,STARLINK-4260,PAYLOAD,2024-02-10 20:36:40,15.0884977,0.0001314,53.2172,256.1549,96.2137,263.9005,2.2113e-05,6.4e-07,0.0,0 STARLINK-4260,1 52986U 22076A   24041.85880515  .00000064  00000-0  22113-4 0  9991,2 52986  53.2172 256.1549 0001314  96.2137 263.9005 15.08849770 88438,6917.851,95.437,540.625,538.807,0.0
